[{"OBJECT_NAME":"STARLINK-31914","OBJECT_ID":"2024-100T","EPOCH":"2026-03-09T03:55:06.534912","MEAN_MOTION":15.27567526,"ECCENTRICITY":0.00012952,"INCLINATION":43.0032,"RA_OF_ASC_NODE":128.6013,"ARG_OF_PERICENTER":251.5976,"MEAN_ANOMALY":108.4735,"EPHEMERIS_TYPE":0,"CLASSIFICATION_TYPE":"U","NORAD_CAT_ID":59902,"ELEMENT_SET_NO":999,"REV_AT_EPOCH":10096,"BSTAR":-4.5257914e-5,"MEAN_MOTION_DOT":-1.507e-5,"MEAN_MOTION_DDOT":0},{"OBJECT_NAME":"FENGYUN 1C DEB","OBJECT_ID":"1999-025BYD","EPOCH":"2026-03-02T20:37:52.103712","MEAN_MOTION":15.19437968,"ECCENTRICITY":0.00147498,"INCLINATION":98.2493,"RA_OF_ASC_NODE":301.6947,"ARG_OF_PERICENTER":10.832,"MEAN_ANOMALY":349.3227,"EPHEMERIS_TYPE":0,"CLASSIFICATION_TYPE":"U","NORAD_CAT_ID":31538,"ELEMENT_SET_NO":999,"REV_AT_EPOCH":68212,"BSTAR":0.0071136993,"MEAN_MOTION_DOT":0.00154158,"MEAN_MOTION_DDOT":0}]
